{"type": "FeatureCollection", "features": [{"type": "Feature", "properties": {"name": "North America"}, "geometry": {"type": "Polygon", "coordinates": [[[-168, 65], [-162, 63], [-153, 60], [-149, 61], [-139, 60], [-137, 59], [-135, 56], [-130, 55], [-126, 50], [-124, 46], [-124, 40], [-120, 34], [-117, 32], [-106, 25], [-97, 26], [-97, 28], [-94, 30], [-90, 29], [-89, 30], [-85, 30], [-82, 25], [-80, 25], [-81, 31], [-77, 35], [-75, 36], [-74, 40], [-71, 41], [-70, 43], [-67, 45], [-64, 47], [-60, 47], [-55, 50], [-57, 52], [-56, 53], [-60, 54], [-64, 58], [-68, 59], [-72, 62], [-80, 63], [-85, 65], [-95, 69], [-105, 69], [-110, 68], [-120, 70], [-130, 69], [-140, 70], [-155, 71], [-168, 65]]]}}, {"type": "Feature", "properties": {"name": "South America"}, "geometry": {"type": "Polygon", "coordinates": [[[-81, 8], [-77, 9], [-72, 12], [-67, 11], [-60, 8], [-52, 4], [-50, 2], [-50, -2], [-44, -2], [-41, -3], [-38, -5], [-35, -7], [-35, -10], [-37, -12], [-38, -15], [-39, -17], [-40, -22], [-42, -23], [-44, -23], [-47, -25], [-48, -28], [-50, -30], [-52, -33], [-55, -34], [-57, -36], [-58, -38], [-63, -39], [-65, -41], [-65, -43], [-66, -45], [-68, -47], [-66, -52], [-68, -54], [-68, -56], [-70, -55], [-72, -52], [-75, -48], [-74, -45], [-72, -40], [-71, -35], [-71, -30], [-70, -25], [-70, -18], [-70, -15], [-75, -14], [-76, -10], [-77, -7], [-80, -3], [-80, 0], [-78, 2], [-77, 4], [-79, 7], [-81, 8]]]}}, {"type": "Feature", "properties": {"name": "Europe and Asia"}, "geometry": {"type": "Polygon", "coordinates": [[[-10, 36], [-6, 36], [0, 36], [3, 37], [6, 37], [10, 37], [12, 38], [13, 41], [16, 40], [20, 40], [26, 41], [29, 41], [30, 37], [32, 36], [35, 32], [35, 30], [34, 28], [36, 26], [43, 12], [45, 12], [50, 26], [55, 26], [57, 25], [60, 25], [65, 25], [67, 25], [68, 24], [72, 21], [77, 8], [80, 10], [80, 13], [85, 15], [88, 22], [90, 22], [92, 21], [95, 16], [98, 10], [100, 5], [104, 1], [104, 3], [108, 12], [109, 16], [106, 18], [108, 21], [110, 20], [117, 25], [120, 30], [122, 31], [121, 34], [125, 38], [127, 35], [129, 33], [131, 34], [135, 35], [140, 40], [140, 43], [142, 46], [143, 50], [138, 53], [135, 49], [132, 43], [130, 43], [131, 47], [133, 48], [135, 55], [140, 60], [143, 59], [152, 59], [157, 61], [160, 64], [170, 63], [175, 64], [180, 65], [180, 71], [170, 71], [155, 72], [140, 73], [125, 73], [110, 74], [100, 73], [85, 72], [75, 72], [68, 74], [55, 73], [48, 68], [40, 67], [33, 69], [30, 70], [25, 71], [19, 69], [15, 67], [12, 68], [10, 63], [5, 62], [5, 60], [8, 58], [12, 56], [11, 55], [14, 54], [10, 54], [8, 54], [4, 52], [3, 51], [-1, 51], [-5, 50], [-5, 52], [-10, 52], [-9, 54], [-6, 56], [-5, 58], [-3, 58], [-7, 58], [-9, 57], [-10, 51], [-10, 44], [-8, 43], [-2, 43], [-1, 38], [-5, 36], [-10, 36]]]}}, {"type": "Feature", "properties": {"name": "Africa"}, "geometry": {"type": "Polygon", "coordinates": [[[-17, 15], [-17, 21], [-13, 28], [-5, 36], [-1, 36], [10, 37], [11, 33], [10, 31], [9, 30], [10, 34], [11, 37], [12, 31], [25, 32], [32, 31], [34, 30], [33, 28], [35, 26], [37, 24], [40, 20], [43, 12], [42, 10], [44, 3], [46, 0], [42, -2], [41, -4], [40, -11], [36, -12], [35, -17], [35, -22], [33, -26], [32, -28], [29, -30], [28, -33], [26, -34], [18, -34], [16, -29], [13, -23], [12, -17], [12, -6], [9, 4], [5, 5], [1, 6], [-3, 5], [-8, 5], [-13, 8], [-15, 11], [-17, 15]]]}}, {"type": "Feature", "properties": {"name": "Australia"}, "geometry": {"type": "Polygon", "coordinates": [[[115, -34], [115, -22], [119, -18], [123, -16], [128, -15], [130, -12], [132, -11], [136, -12], [136, -14], [138, -16], [140, -17], [142, -11], [144, -14], [145, -15], [146, -19], [149, -21], [150, -24], [153, -27], [153, -30], [151, -34], [150, -37], [147, -39], [144, -38], [141, -38], [137, -36], [136, -35], [134, -33], [129, -32], [124, -33], [119, -34], [115, -34]]]}}]}